0 FENGYUN 1C DEB
1 31715U 99025CDN 13282.66940608  .00001585  00000-0  47520-3 0  3452
2 31715 099.2980 079.0410 0258796 067.6369 295.1669 14.26757907333534
0 FENGYUN 1C DEB
1 31715U 99025CDN 13285.68486900  .00001566  00000-0  46935-3 0  3466
2 31715 099.3008 082.2479 0258880 059.2230 303.4173 14.26767580333963
0 FENGYUN 1C DEB
1 31715U 99025CDN 13291.22481564  .00001678  00000-0  50371-3 0  3478
2 31715 099.3023 088.1376 0257424 043.3367 318.8254 14.26787582334751
0 FENGYUN 1C DEB
1 31715U 99025CDN 13293.39867783  .00001703  00000-0  51107-3 0  3487
2 31715 099.3028 090.4534 0257500 037.0971 324.7741 14.26795507335062
0 FENGYUN 1C DEB
1 31715U 99025CDN 13295.29203631  .00001617  00000-0  48675-3 0  3495
2 31715 099.3030 092.4661 0257051 031.6725 329.9568 14.26800952335331
